[{"OBJECT_NAME":"CENTISPACE-1 S13","OBJECT_ID":"2025-007H","EPOCH":"2026-03-09T23:09:05.132736","MEAN_MOTION":13.82892248,"ECCENTRICITY":0.0009712,"INCLINATION":54.9822,"RA_OF_ASC_NODE":278.4888,"ARG_OF_PERICENTER":239.9953,"MEAN_ANOMALY":120.0041,"EPHEMERIS_TYPE":0,"CLASSIFICATION_TYPE":"U","NORAD_CAT_ID":62582,"ELEMENT_SET_NO":999,"REV_AT_EPOCH":6102,"BSTAR":0.00010239415,"MEAN_MOTION_DOT":-2.9e-7,"MEAN_MOTION_DDOT":0},{"OBJECT_NAME":"SL-8 R\/B","OBJECT_ID":"1992-036B","EPOCH":"2026-03-09T23:33:01.712448","MEAN_MOTION":13.78271381,"ECCENTRICITY":0.00308838,"INCLINATION":82.9274,"RA_OF_ASC_NODE":84.1471,"ARG_OF_PERICENTER":26.5543,"MEAN_ANOMALY":333.7189,"EPHEMERIS_TYPE":0,"CLASSIFICATION_TYPE":"U","NORAD_CAT_ID":22007,"ELEMENT_SET_NO":999,"REV_AT_EPOCH":62226,"BSTAR":0.00016215519,"MEAN_MOTION_DOT":1.79e-6,"MEAN_MOTION_DDOT":0}]
